NORAD_CAT_ID,OBJECT_NAME,OBJECT_TYPE,EPOCH,MEAN_MOTION,ECCENTRICITY,INCLINATION,RA_OF_ASC_NODE,ARG_OF_PERICENTER,MEAN_ANOMALY,BSTAR,MEAN_MOTION_DOT,MEAN_MOTION_DDOT,TLE_LINE0,TLE_LINE1,TLE_LINE2,SEMIMAJOR_AXIS,PERIOD,APOGEE,PERIGEE,DECAYED
54092.0,STARLINK-5190,PAYLOAD,2023-03-14 12:13:25,15.08861682,0.0002043,53.2189,192.5654,105.9145,254.2072,0.00082127,0.00012814,0.0,0 STARLINK-5190,1 54092U 22136AT  23073.50932780  .00012814  00000-0  82127-3 0  9992,2 54092  53.2189 192.5654 0002043 105.9145 254.2072 15.08861682 22254,6917.814,95.436,541.092,538.266,0.0
54092.0,STARLINK-5190,PAYLOAD,2023-03-15 12:04:11,15.08873776,0.0001603,53.2176,188.1028,90.5224,269.5952,0.00060039,9.289e-05,0.0,0 STARLINK-5190,1 54092U 22136AT  23074.50291248  .00009289  00000-0  60039-3 0  9990,2 54092  53.2176 188.1028 0001603  90.5224 269.5952 15.08873776 22875,6917.777,95.435,540.751,538.533,0.0
54092.0,STARLINK-5190,PAYLOAD,2023-03-16 07:08:49,15.08846904,0.0001715,53.2172,184.5352,106.1011,254.017,1.1959e-05,-9.8e-07,0.0,0 STARLINK-5190,1 54092U 22136AT  23075.29779303 -.00000098  00000-0  11959-4 0  9998,2 54092  53.2172 184.5352 0001715 106.1011 254.0170 15.08846904 22990,6917.859,95.437,540.911,538.538,0.0
54092.0,STARLINK-5190,PAYLOAD,2023-03-17 00:38:04,15.08826053,3.03e-05,53.2171,181.2636,123.4831,236.619,2.1023e-05,4.7e-07,0.0,0 STARLINK-5190,1 54092U 22136AT  23076.02644410  .00000047  00000-0  21023-4 0  9996,2 54092  53.2171 181.2636 0000303 123.4831 236.6190 15.08826053 23107,6917.923,95.438,539.998,539.578,0.0
54092.0,STARLINK-5190,PAYLOAD,2023-03-17 10:10:25,15.08797791,0.0001533,53.216,179.4802,88.5877,271.5291,0.00064079,9.913e-05,0.0,0 STARLINK-5190,1 54092U 22136AT  23076.42390913  .00009913  00000-0  64079-3 0  9994,2 54092  53.2160 179.4802 0001533  88.5877 271.5291 15.08797791 23168,6918.009,95.44,540.935,538.814,0.0
54092.0,STARLINK-5190,PAYLOAD,2023-03-17 13:21:10,15.08828731,0.0001377,53.216,178.8843,94.989,265.1259,-0.00016241,-2.871e-05,0.0,0 STARLINK-5190,1 54092U 22136AT  23076.55637339 -.00002871  00000-0 -16241-3 0  9990,2 54092  53.2160 178.8843 0001377  94.9890 265.1259 15.08828731 22710,6917.915,95.438,540.732,538.827,0.0
54092.0,STARLINK-5190,PAYLOAD,2023-03-18 10:01:10,15.08839072,0.0001067,53.2165,175.02,97.3866,262.7248,0.00032858,4.945e-05,0.0,0 STARLINK-5190,1 54092U 22136AT  23077.41748542  .00004945  00000-0  32858-3 0  9999,2 54092  53.2165 175.0200 0001067  97.3866 262.7248 15.08839072 23315,6917.883,95.438,540.486,539.01,0.0
54092.0,STARLINK-5190,PAYLOAD,2023-03-18 13:11:56,15.08848583,0.0001115,53.2164,174.4241,104.3504,255.7612,0.00039903,6.07e-05,0.0,0 STARLINK-5190,1 54092U 22136AT  23077.54995794  .00006070  00000-0  39903-3 0  9995,2 54092  53.2164 174.4241 0001115 104.3504 255.7612 15.08848583 23330,6917.854,95.437,540.49,538.948,0.0
54092.0,STARLINK-5190,PAYLOAD,2023-03-18 17:58:05,15.08857414,0.0001287,53.2166,173.5316,104.8172,255.2963,0.00046212,7.078e-05,0.0,0 STARLINK-5190,1 54092U 22136AT  23077.74867057  .00007078  00000-0  46212-3 0  9997,2 54092  53.2166 173.5316 0001287 104.8172 255.2963 15.08857414 22898,6917.827,95.436,540.582,538.802,0.0
54092.0,STARLINK-5190,PAYLOAD,2023-03-19 09:51:58,15.08836348,0.0001474,53.2161,170.5587,95.0337,265.0823,8.4634e-05,1.059e-05,0.0,0 STARLINK-5190,1 54092U 22136AT  23078.41109407  .00001059  00000-0  84634-4 0  9994,2 54092  53.2161 170.5587 0001474  95.0337 265.0823 15.08836348 23463,6917.892,95.438,540.776,538.737,0.0
54092.0,STARLINK-5190,PAYLOAD,2023-03-19 13:02:44,15.08842574,0.0001238,53.2163,169.9654,89.7215,270.3919,0.00020515,2.979e-05,0.0,0 STARLINK-5190,1 54092U 22136AT  23078.54357042  .00002979  00000-0  20515-3 0  9997,2 54092  53.2163 169.9654 0001238  89.7215 270.3919 15.08842574 23019,6917.873,95.437,540.594,538.881,0.0
54092.0,STARLINK-5190,PAYLOAD,2023-03-20 04:56:35,15.08849123,0.0001182,53.2172,166.9922,85.664,274.4487,-5.1773e-05,-1.112e-05,0.0,0 STARLINK-5190,1 54092U 22136AT  23079.20596419 -.00001112  00000-0 -51773-4 0  9995,2 54092  53.2172 166.9922 0001182  85.6640 274.4487 15.08849123 23583,6917.853,95.437,540.535,538.9,0.0
54092.0,STARLINK-5190,PAYLOAD,2023-03-20 11:18:07,15.08847735,0.0001367,53.2169,165.8027,88.5959,271.519,-7.9608e-05,-1.555e-05,0.0,0 STARLINK-5190,1 54092U 22136AT  23079.47092399 -.00001555  00000-0 -79608-4 0  9990,2 54092  53.2169 165.8027 0001367  88.5959 271.5190 15.08847735 23152,6917.857,95.437,540.667,538.776,0.0
54092.0,STARLINK-5190,PAYLOAD,2023-03-21 04:47:22,15.08838971,0.0001509,53.2175,162.5311,82.4842,277.6322,0.00012039,1.628e-05,0.0,0 STARLINK-5190,1 54092U 22136AT  23080.19956720  .00001628  00000-0  12039-3 0  9991,2 54092  53.2175 162.5311 0001509  82.4842 277.6322 15.08838971 23731,6917.884,95.438,540.792,538.705,0.0
54092.0,STARLINK-5190,PAYLOAD,2023-03-21 12:44:18,15.08844517,0.0001446,53.2173,161.044,77.5417,282.5737,0.00011723,1.578e-05,0.0,0 STARLINK-5190,1 54092U 22136AT  23080.53076444  .00001578  00000-0  11723-3 0  9998,2 54092  53.2173 161.0440 0001446  77.5417 282.5737 15.08844517 23311,6917.867,95.437,540.732,538.731,0.0
54092.0,STARLINK-5190,PAYLOAD,2023-03-22 10:59:43,15.08827575,0.0001565,53.2172,156.882,83.7419,276.3751,0.0001245,1.693e-05,0.0,0 STARLINK-5190,1 54092U 22136AT  23081.45813802  .00001693  00000-0  12450-3 0  9993,2 54092  53.2172 156.8820 0001565  83.7419 276.3751 15.08827575 23926,6917.918,95.438,540.866,538.701,0.0
54092.0,STARLINK-5190,PAYLOAD,2023-03-22 14:10:28,15.08848754,0.0001243,53.2171,156.285,98.8866,261.2266,0.00012966,1.777e-05,0.0,0 STARLINK-5190,1 54092U 22136AT  23081.59060276  .00001777  00000-0  12966-3 0  9992,2 54092  53.2171 156.2850 0001243  98.8866 261.2266 15.08848754 23946,6917.854,95.437,540.579,538.859,0.0
54092.0,STARLINK-5190,PAYLOAD,2023-03-23 04:28:57,15.08841589,0.0001255,53.2165,153.6081,84.3178,275.7957,3.0126e-05,1.92e-06,0.0,0 STARLINK-5190,1 54092U 22136AT  23082.18677133  .00000192  00000-0  30126-4 0  9993,2 54092  53.2165 153.6081 0001255  84.3178 275.7957 15.08841589 24032,6917.876,95.437,540.609,538.872,0.0
54092.0,STARLINK-5190,PAYLOAD,2023-03-23 10:50:29,15.08845536,0.0001444,53.2172,152.42,96.1023,264.0134,9.4969e-05,1.224e-05,0.0,0 STARLINK-5190,1 54092U 22136AT  23082.45172650  .00001224  00000-0  94969-4 0  9999,2 54092  53.2172 152.4200 0001444  96.1023 264.0134 15.08845536 23606,6917.863,95.437,540.727,538.73,0.0
54092.0,STARLINK-5190,PAYLOAD,2023-03-23 21:58:10,15.08852792,0.0001394,53.2168,150.3389,86.4986,273.6165,0.00019323,2.79e-05,0.0,0 STARLINK-5190,1 54092U 22136AT  23082.91539878  .00002790  00000-0  19323-3 0  9998,2 54092  53.2168 150.3389 0001394  86.4986 273.6165 15.08852792 23679,6917.841,95.437,540.671,538.742,0.0
54092.0,STARLINK-5190,PAYLOAD,2023-03-24 10:41:14,15.08885554,0.0001891,53.2159,147.9639,71.1417,288.978,0.00090246,0.00014122,0.0,0 STARLINK-5190,1 54092U 22136AT  23083.44530977  .00014122  00000-0  90246-3 0  9993,2 54092  53.2159 147.9639 0001891  71.1417 288.9780 15.08885554 24227,6917.741,95.435,540.914,538.298,0.0
54092.0,STARLINK-5190,PAYLOAD,2023-03-24 21:48:57,15.08825614,0.0001969,53.2156,145.8786,78.9456,281.1757,-0.00051007,-8.394e-05,0.0,0 STARLINK-5190,1 54092U 22136AT  23083.90900133 -.00008394  00000-0 -51007-3 0  9997,2 54092  53.2156 145.8786 0001969  78.9456 281.1757 15.08825614 23823,6917.924,95.438,541.152,538.427,0.0
54092.0,STARLINK-5190,PAYLOAD,2023-03-25 04:10:30,15.08828077,8.83e-05,53.2155,144.6889,63.1432,296.965,-0.00043387,-7.184e-05,0.0,0 STARLINK-5190,1 54092U 22136AT  23084.17395844 -.00007184  00000-0 -43387-3 0  9992,2 54092  53.2155 144.6889 0000883  63.1432 296.9650 15.08828077 24336,6917.917,95.438,540.393,539.171,0.0
54092.0,STARLINK-5190,PAYLOAD,2023-03-25 10:32:02,15.08835044,0.0001174,53.2153,143.5003,58.4046,301.706,-0.00043957,-7.276e-05,0.0,0 STARLINK-5190,1 54092U 22136AT  23084.43891330 -.00007276  00000-0 -43957-3 0  9997,2 54092  53.2153 143.5003 0001174  58.4046 301.7060 15.08835044 24378,6917.896,95.438,540.573,538.948,0.0
54092.0,STARLINK-5190,PAYLOAD,2023-03-25 15:18:11,15.08834025,8.56e-05,53.2153,142.6053,96.1438,263.9652,6.8782e-05,8.07e-06,0.0,0 STARLINK-5190,1 54092U 22136AT  23084.63763148  .00000807  00000-0  68782-4 0  9999,2 54092  53.2153 142.6053 0000856  96.1438 263.9652 15.08834025 23938,6917.899,95.438,540.356,539.171,0.0
54092.0,STARLINK-5190,PAYLOAD,2023-03-26 08:47:27,15.08814187,0.0001071,53.2159,139.3325,126.2522,233.8569,0.00015539,2.184e-05,0.0,0 STARLINK-5190,1 54092U 22136AT  23085.36628719  .00002184  00000-0  15539-3 0  9995,2 54092  53.2159 139.3325 0001071 126.2522 233.8569 15.08814187 24513,6917.959,95.439,540.565,539.083,0.0
54092.0,STARLINK-5190,PAYLOAD,2023-03-26 19:55:09,15.08823433,6.86e-05,53.2158,137.2537,87.4003,272.7068,0.00038423,5.83e-05,0.0,0 STARLINK-5190,1 54092U 22136AT  23085.82997384  .00005830  00000-0  38423-3 0  9991,2 54092  53.2158 137.2537 0000686  87.4003 272.7068 15.08823433 24113,6917.931,95.439,540.271,539.321,0.0
54092.0,STARLINK-5190,PAYLOAD,2023-03-27 08:38:14,15.08842992,7.41e-05,53.2154,134.875,64.3191,295.7878,0.00078748,0.00012268,0.0,0 STARLINK-5190,1 54092U 22136AT  23086.35989423  .00012268  00000-0  78748-3 0  9992,2 54092  53.2154 134.8750 0000741  64.3191 295.7878 15.08842992 24668,6917.871,95.437,540.249,539.224,0.0
54092.0,STARLINK-5190,PAYLOAD,2023-03-27 11:49:00,15.08852406,7.64e-05,53.2158,134.2803,68.0964,292.0109,0.0010142,0.00015895,0.0,0 STARLINK-5190,1 54092U 22136AT  23086.49237259  .00015895  00000-0  10142-2 0  9992,2 54092  53.2158 134.2803 0000764  68.0964 292.0109 15.08852406 24218,6917.842,95.437,540.236,539.179,0.0
54092.0,STARLINK-5190,PAYLOAD,2023-03-28 08:29:01,15.08853366,9.27e-05,53.2161,130.415,92.1524,267.9574,0.00071676,0.00011142,0.0,0 STARLINK-5190,1 54092U 22136AT  23087.35349334  .00011142  00000-0  71676-3 0  9997,2 54092  53.2161 130.4150 0000927  92.1524 267.9574 15.08853366 24815,6917.84,95.437,540.346,539.063,0.0
